[
    {"name":"Afghanistan (\u202b\u0627\u0641\u063a\u0627\u0646\u0633\u062a\u0627\u0646\u202c\u200e)","iso2":"af","dialCode":"93","tshop_id":"661"},
    {"name":"Albania (Shqip\u00ebri)","iso2":"al","dialCode":"355","tshop_id":"662"},
    {"name":"Algeria (\u202b\u0627\u0644\u062c\u0632\u0627\u0626\u0631\u202c\u200e)","iso2":"dz","dialCode":"213","tshop_id":"663"},
    {"name":"American Samoa","iso2":"as","dialCode":"1","tshop_id":"664"},
    {"name":"Angola","iso2":"ao","dialCode":"244","tshop_id":"666"},
    {"name":"Anguilla","iso2":"ai","dialCode":"1","tshop_id":"916"},
    {"name":"Antigua and Barbuda","iso2":"ag","dialCode":"1","tshop_id":"668"},
    {"name":"Argentina","iso2":"ar","dialCode":"54","tshop_id":"669"},
    {"name":"Armenia (\u0540\u0561\u0575\u0561\u057d\u057f\u0561\u0576)","iso2":"am","dialCode":"374","tshop_id":"670"},
    {"name":"Aruba","iso2":"aw","dialCode":"297","tshop_id":"671"},
    {"name":"Azerbaijan (Az\u0259rbaycan)","iso2":"az","dialCode":"994","tshop_id":"675"},
    {"name":"Bahamas","iso2":"bs","dialCode":"1","tshop_id":"676"},
    {"name":"Bahrain (\u202b\u0627\u0644\u0628\u062d\u0631\u064a\u0646\u202c\u200e)","iso2":"bh","dialCode":"973","tshop_id":"677"},
    {"name":"Bangladesh (\u09ac\u09be\u0982\u09b2\u09be\u09a6\u09c7\u09b6)","iso2":"bd","dialCode":"880","tshop_id":"678"},
    {"name":"Barbados","iso2":"bb","dialCode":"1","tshop_id":"679"},
    {"name":"Belarus (\u0411\u0435\u043b\u0430\u0440\u0443\u0441\u044c)","iso2":"by","dialCode":"375","tshop_id":"680"},
    {"name":"Belgium (Belgi\u00eb)","iso2":"be","dialCode":"32","tshop_id":"681"},
    {"name":"Belize","iso2":"bz","dialCode":"501","tshop_id":"682"},
    {"name":"Benin (B\u00e9nin)","iso2":"bj","dialCode":"229","tshop_id":"683"},
    {"name":"Bermuda","iso2":"bm","dialCode":"1","tshop_id":"684"},
    {"name":"Bhutan (\u0f60\u0f56\u0fb2\u0f74\u0f42)","iso2":"bt","dialCode":"975","tshop_id":"685"},
    {"name":"Bolivia","iso2":"bo","dialCode":"591","tshop_id":"686"},
    {"name":"Botswana","iso2":"bw","dialCode":"267","tshop_id":"689"},
    {"name":"Brazil (Brasil)","iso2":"br","dialCode":"55","tshop_id":"691"},
    {"name":"British Indian Ocean Territory","iso2":"io","dialCode":"246","tshop_id":"766"},
    {"name":"British Virgin Islands","iso2":"vg","dialCode":"1","tshop_id":"692"},
    {"name":"Burkina Faso","iso2":"bf","dialCode":"226","tshop_id":"697"},
    {"name":"Burundi (Uburundi)","iso2":"bi","dialCode":"257","tshop_id":"698"},
    {"name":"Cambodia (\u1780\u1798\u17d2\u1796\u17bb\u1787\u17b6)","iso2":"kh","dialCode":"855","tshop_id":"699"},
    {"name":"Cameroon (Cameroun)","iso2":"cm","dialCode":"237","tshop_id":"700"},
    {"name":"Canada","iso2":"ca","dialCode":"1","tshop_id":"701"},
    {"name":"Cape Verde (Kabu Verdi)","iso2":"cv","dialCode":"238","tshop_id":"702"},
    {"name":"Caribbean Netherlands","iso2":"bq","dialCode":"599","tshop_id":"820"},
    {"name":"Cayman Islands","iso2":"ky","dialCode":"1","tshop_id":"704"},
    {"name":"Central African Republic (R\u00e9publique centrafricaine)","iso2":"cf","dialCode":"236","tshop_id":"705"},
    {"name":"Chile","iso2":"cl","dialCode":"56","tshop_id":"707"},
    {"name":"China (\u4e2d\u56fd)","iso2":"cn","dialCode":"86","tshop_id":"708"},
    {"name":"Colombia","iso2":"co","dialCode":"57","tshop_id":"710"},
    {"name":"Comoros (\u202b\u062c\u0632\u0631 \u0627\u0644\u0642\u0645\u0631\u202c\u200e)","iso2":"km","dialCode":"269","tshop_id":"711"},
    {"name":"Costa Rica","iso2":"cr","dialCode":"506","tshop_id":"715"},
    {"name":"C\u00f4te d\u2019Ivoire","iso2":"ci","dialCode":"225","tshop_id":"773"},
    {"name":"Cyprus (\u039a\u03cd\u03c0\u03c1\u03bf\u03c2)","iso2":"cy","dialCode":"357","tshop_id":"718"},
    {"name":"Dominica","iso2":"dm","dialCode":"1","tshop_id":"724"},
    {"name":"Dominican Republic (Rep\u00fablica Dominicana)","iso2":"do","dialCode":"1","tshop_id":"725"},
    {"name":"Ecuador","iso2":"ec","dialCode":"593","tshop_id":"727"},
    {"name":"Egypt (\u202b\u0645\u0635\u0631\u202c\u200e)","iso2":"eg","dialCode":"20","tshop_id":"729"},
    {"name":"El Salvador","iso2":"sv","dialCode":"503","tshop_id":"730"},
    {"name":"Ethiopia","iso2":"et","dialCode":"251","tshop_id":"734"},
    {"name":"Fiji","iso2":"fj","dialCode":"679","tshop_id":"737"},
    {"name":"France","iso2":"fr","dialCode":"33","tshop_id":"740"},
    {"name":"French Guiana (Guyane fran\u00e7aise)","iso2":"gf","dialCode":"594","tshop_id":"741"},
    {"name":"Gambia","iso2":"gm","dialCode":"220","tshop_id":"745"},
    {"name":"Georgia (\u10e1\u10d0\u10e5\u10d0\u10e0\u10d7\u10d5\u10d4\u10da\u10dd)","iso2":"ge","dialCode":"995","tshop_id":"746"},
    {"name":"Germany (Deutschland)","iso2":"de","dialCode":"49","tshop_id":"747"},
    {"name":"Ghana (Gaana)","iso2":"gh","dialCode":"233","tshop_id":"748"},
    {"name":"Greece (\u0395\u03bb\u03bb\u03ac\u03b4\u03b1)","iso2":"gr","dialCode":"30","tshop_id":"751"},
    {"name":"Grenada","iso2":"gd","dialCode":"1","tshop_id":"753"},
    {"name":"Guatemala","iso2":"gt","dialCode":"502","tshop_id":"756"},
    {"name":"Guinea (Guin\u00e9e)","iso2":"gn","dialCode":"224","tshop_id":"757"},
    {"name":"Guinea-Bissau (Guin\u00e9 Bissau)","iso2":"gw","dialCode":"245","tshop_id":"758"},
    {"name":"Guyana","iso2":"gy","dialCode":"592","tshop_id":"760"},
    {"name":"Haiti","iso2":"ht","dialCode":"509","tshop_id":"761"},
    {"name":"Honduras","iso2":"hn","dialCode":"504","tshop_id":"762"},
    {"name":"India (\u092d\u093e\u0930\u0924)","iso2":"in","dialCode":"91","tshop_id":"766"},
    {"name":"Indonesia","iso2":"id","dialCode":"62","tshop_id":"767"},
    {"name":"Iraq (\u202b\u0627\u0644\u0639\u0631\u0627\u0642\u202c\u200e)","iso2":"iq","dialCode":"964","tshop_id":"769"},
    {"name":"Italy (Italia)","iso2":"it","dialCode":"39","tshop_id":"772"},
    {"name":"Jamaica","iso2":"jm","dialCode":"1","tshop_id":"774"},
    {"name":"Japan (\u65e5\u672c)","iso2":"jp","dialCode":"81","tshop_id":"775"},
    {"name":"Jordan (\u202b\u0627\u0644\u0623\u0631\u062f\u0646\u202c\u200e)","iso2":"jo","dialCode":"962","tshop_id":"776"},
    {"name":"Kenya","iso2":"ke","dialCode":"254","tshop_id":"779"},
    {"name":"Kosovo","iso2":"xk","dialCode":"383","tshop_id":"919"},
    {"name":"Kuwait (\u202b\u0627\u0644\u0643\u0648\u064a\u062a\u202c\u200e)","iso2":"kw","dialCode":"965","tshop_id":"782"},
    {"name":"Kyrgyzstan (\u041a\u044b\u0440\u0433\u044b\u0437\u0441\u0442\u0430\u043d)","iso2":"kg","dialCode":"996","tshop_id":"784"},
    {"name":"Laos (\u0ea5\u0eb2\u0ea7)","iso2":"la","dialCode":"856","tshop_id":"785"},
    {"name":"Lebanon (\u202b\u0644\u0628\u0646\u0627\u0646\u202c\u200e)","iso2":"lb","dialCode":"961","tshop_id":"787"},
    {"name":"Liberia","iso2":"lr","dialCode":"231","tshop_id":"789"},
    {"name":"Lithuania (Lietuva)","iso2":"lt","dialCode":"370","tshop_id":"792"},
    {"name":"Luxembourg","iso2":"lu","dialCode":"352","tshop_id":"793"},
    {"name":"Madagascar (Madagasikara)","iso2":"mg","dialCode":"261","tshop_id":"797"},
    {"name":"Malawi","iso2":"mw","dialCode":"265","tshop_id":"798"},
    {"name":"Malaysia","iso2":"my","dialCode":"60","tshop_id":"799"},
    {"name":"Mali","iso2":"ml","dialCode":"223","tshop_id":"801"},
    {"name":"Martinique","iso2":"mq","dialCode":"596","tshop_id":"804"},
    {"name":"Mexico (M\u00e9xico)","iso2":"mx","dialCode":"52","tshop_id":"808"},
    {"name":"Moldova (Republica Moldova)","iso2":"md","dialCode":"373","tshop_id":"810"},
    {"name":"Mongolia (\u041c\u043e\u043d\u0433\u043e\u043b)","iso2":"mn","dialCode":"976","tshop_id":"812"},
    {"name":"Montserrat","iso2":"ms","dialCode":"1","tshop_id":"917"},
    {"name":"Morocco (\u202b\u0627\u0644\u0645\u063a\u0631\u0628\u202c\u200e)","iso2":"ma","dialCode":"212","tshop_id":"813"},
    {"name":"Mozambique (Mo\u00e7ambique)","iso2":"mz","dialCode":"258","tshop_id":"814"},
    {"name":"Myanmar (Burma) (\u1019\u103c\u1014\u103a\u1019\u102c)","iso2":"mm","dialCode":"95","tshop_id":"816"},
    {"name":"Namibia (Namibi\u00eb)","iso2":"na","dialCode":"264","tshop_id":"817"},
    {"name":"Nauru","iso2":"nr","dialCode":"674","tshop_id":"818"},
    {"name":"Nepal (\u0928\u0947\u092a\u093e\u0932)","iso2":"np","dialCode":"977","tshop_id":"819"},
    {"name":"Netherlands (Nederland)","iso2":"nl","dialCode":"31","tshop_id":"820"},
    {"name":"Nicaragua","iso2":"ni","dialCode":"505","tshop_id":"824"},
    {"name":"Niger (Nijar)","iso2":"ne","dialCode":"227","tshop_id":"825"},
    {"name":"Nigeria","iso2":"ng","dialCode":"234","tshop_id":"826"},
    {"name":"Oman (\u202b\u0639\u064f\u0645\u0627\u0646\u202c\u200e)","iso2":"om","dialCode":"968","tshop_id":"831"},
    {"name":"Pakistan (\u202b\u067e\u0627\u06a9\u0633\u062a\u0627\u0646\u202c\u200e)","iso2":"pk","dialCode":"92","tshop_id":"832"},
    {"name":"Palestine (\u202b\u0641\u0644\u0633\u0637\u064a\u0646\u202c\u200e)","iso2":"ps","dialCode":"970","tshop_id":"834"},
    {"name":"Panama (Panam\u00e1)","iso2":"pa","dialCode":"507","tshop_id":"836"},
    {"name":"Papua New Guinea","iso2":"pg","dialCode":"675","tshop_id":"837"},
    {"name":"Paraguay","iso2":"py","dialCode":"595","tshop_id":"838"},
    {"name":"Peru (Per\u00fa)","iso2":"pe","dialCode":"51","tshop_id":"839"},
    {"name":"Philippines","iso2":"ph","dialCode":"63","tshop_id":"840"},
    {"name":"Poland (Polska)","iso2":"pl","dialCode":"48","tshop_id":"841"},
    {"name":"Portugal","iso2":"pt","dialCode":"351","tshop_id":"843"},
    {"name":"Puerto Rico","iso2":"pr","dialCode":"1","tshop_id":"842"},
    {"name":"Qatar (\u202b\u0642\u0637\u0631\u202c\u200e)","iso2":"qa","dialCode":"974","tshop_id":"844"},
    {"name":"Romania (Rom\u00e2nia)","iso2":"ro","dialCode":"40","tshop_id":"847"},
    {"name":"Russia (\u0420\u043e\u0441\u0441\u0438\u044f)","iso2":"ru","dialCode":"7","tshop_id":"848"},
    {"name":"Rwanda","iso2":"rw","dialCode":"250","tshop_id":"849"},
    {"name":"Saint Kitts and Nevis","iso2":"kn","dialCode":"1","tshop_id":"918"},
    {"name":"Saint Lucia","iso2":"lc","dialCode":"1","tshop_id":"872"},
    {"name":"Saint Vincent and the Grenadines","iso2":"vc","dialCode":"1","tshop_id":"873"},
    {"name":"Samoa","iso2":"ws","dialCode":"685","tshop_id":"855"},
    {"name":"Saudi Arabia (\u202b\u0627\u0644\u0645\u0645\u0644\u0643\u0629 \u0627\u0644\u0639\u0631\u0628\u064a\u0629 \u0627\u0644\u0633\u0639\u0648\u062f\u064a\u0629\u202c\u200e)","iso2":"sa","dialCode":"966","tshop_id":"858"},
    {"name":"Senegal (S\u00e9n\u00e9gal)","iso2":"sn","dialCode":"221","tshop_id":"859"},
    {"name":"Sierra Leone","iso2":"sl","dialCode":"232","tshop_id":"862"},
    {"name":"Singapore","iso2":"sg","dialCode":"65","tshop_id":"863"},
    {"name":"Sint Maarten","iso2":"sx","dialCode":"1","tshop_id":"941"},
    {"name":"South Africa","iso2":"za","dialCode":"27","tshop_id":"868"},
    {"name":"South Korea (\ub300\ud55c\ubbfc\uad6d)","iso2":"kr","dialCode":"82","tshop_id":"869"},
    {"name":"Spain (Espa\u00f1a)","iso2":"es","dialCode":"34","tshop_id":"870"},
    {"name":"Sri Lanka (\u0dc1\u0dca\u200d\u0dbb\u0dd3 \u0dbd\u0d82\u0d9a\u0dcf\u0dc0)","iso2":"lk","dialCode":"94","tshop_id":"871"},
    {"name":"Suriname","iso2":"sr","dialCode":"597","tshop_id":"875"},
    {"name":"Switzerland (Schweiz)","iso2":"ch","dialCode":"41","tshop_id":"878"},
    {"name":"Tajikistan","iso2":"tj","dialCode":"992","tshop_id":"881"},
    {"name":"Tanzania","iso2":"tz","dialCode":"255","tshop_id":"882"},
    {"name":"Thailand (\u0e44\u0e17\u0e22)","iso2":"th","dialCode":"66","tshop_id":"884"},
    {"name":"Togo","iso2":"tg","dialCode":"228","tshop_id":"886"},
    {"name":"Tonga","iso2":"to","dialCode":"676","tshop_id":"888"},
    {"name":"Trinidad and Tobago","iso2":"tt","dialCode":"1","tshop_id":"889"},
    {"name":"Tunisia (\u202b\u062a\u0648\u0646\u0633\u202c\u200e)","iso2":"tn","dialCode":"216","tshop_id":"891"},
    {"name":"Turkey (T\u00fcrkiye)","iso2":"tr","dialCode":"90","tshop_id":"892"},
    {"name":"Turks and Caicos Islands","iso2":"tc","dialCode":"1","tshop_id":"894"},
    {"name":"Uganda","iso2":"ug","dialCode":"256","tshop_id":"900"},
    {"name":"Ukraine (\u0423\u043a\u0440\u0430\u0457\u043d\u0430)","iso2":"ua","dialCode":"380","tshop_id":"901"},
    {"name":"United Arab Emirates (\u202b\u0627\u0644\u0625\u0645\u0627\u0631\u0627\u062a \u0627\u0644\u0639\u0631\u0628\u064a\u0629 \u0627\u0644\u0645\u062a\u062d\u062f\u0629\u202c\u200e)","iso2":"ae","dialCode":"971","tshop_id":"902"},
    {"name":"United Kingdom","iso2":"gb","dialCode":"44","tshop_id":"903"},
    {"name":"United States","iso2":"us","dialCode":"1","tshop_id":"899"},
    {"name":"Uruguay","iso2":"uy","dialCode":"598","tshop_id":"904"},
    {"name":"Uzbekistan (O\u02bbzbekiston)","iso2":"uz","dialCode":"998","tshop_id":"905"},
    {"name":"Vanuatu","iso2":"vu","dialCode":"678","tshop_id":"906"},
    {"name":"Venezuela","iso2":"ve","dialCode":"58","tshop_id":"907"},
    {"name":"Vietnam (Vi\u1ec7t Nam)","iso2":"vn","dialCode":"84","tshop_id":"908"},
    {"name":"Yemen (\u202b\u0627\u0644\u064a\u0645\u0646\u202c\u200e)","iso2":"ye","dialCode":"967","tshop_id":"911"},
    {"name":"Zambia","iso2":"zm","dialCode":"260","tshop_id":"914"},
    {"name":"Zimbabwe","iso2":"zw","dialCode":"263","tshop_id":"915"},
    {"name":"Guadeloupe","iso2":"GP","dialCode":"590"},
    {"name":"Cura√ßao","iso2":"CW","dialCode":"+599","tshop_id":"920"},
    {"name":"Eswatini","iso2":"SZ","dialCode":"268","tshop_id":"876"},
    {"name":"Congo (the Democratic Republic of the)","iso2":"CD","dialCode":"243","tshop_id":"913"},
    {"name":"Ireland","iso2":"IE","dialCode":"353"},
    {"name":"Kazakhstan","iso2":"KZ","dialCode":"7","tshop_id":"778"},
    {"name":"Congo (the)","iso2":"CG","dialCode":"243","tshop_id":"712"},
    {"name":"Mauritania","iso2":"MR","dialCode":"222","tshop_id":"805"},
    {"name":"Australia","iso2":"AU","dialCode":"61"},
    {"name":"Cuba","iso2":"CU","dialCode":"53","tshop_id":"717"},
    {"name":"Netherlands Antilles","iso2":"AN","dialCode":"599"},
    {"name":"Israel","iso2":"IS","dialCode":"972","tshop_id":"771"},
    {"name":"Reunion","iso2":"RE","dialCode":"262","tshop_id":"846"},
    {"name":"Somalio","iso2":"SO","dialCode":"252","tshop_id":"867"},
    {"name":"Sweden","iso2":"SW","dialCode":"46","tshop_id":"877"},
    {"name":"CB Nation","iso2":"CB","dialCode":"0"},
    {"name":"LO Nation","iso2":"LO","dialCode":"0"},
    {"name":"XX Nation","iso2":"XX","dialCode":"0"}
]
